{
  "norad_id": 61008,
  "name": "STARLINK-32340",
  "history": [
    {
      "epoch": "2026-04-13T03:27:51.712128Z",
      "apogee_km": 476.1964078091851,
      "perigee_km": 474.21551755925066,
      "latitude_deg": -2.5066553035912943e-05,
      "longitude_deg": 12.311068544821,
      "height_km": 476.120692328097,
      "semi_major_axis_km": 6853.342962684217,
      "eccentricity": 0.00014452,
      "inclination_deg": 53.1601,
      "raan_deg": 265.6159,
      "arg_perigee_deg": 90.9766,
      "mean_anomaly_deg": 269.14,
      "mean_motion_rev_day": 15.3020305
    },
    {
      "epoch": "2026-04-14T17:05:07.768608Z",
      "apogee_km": 476.11411424139715,
      "perigee_km": 474.3144241980999,
      "latitude_deg": -2.8622128226194963e-05,
      "longitude_deg": 159.16712069696098,
      "height_km": 475.97406200960853,
      "semi_major_axis_km": 6853.351269219748,
      "eccentricity": 0.0001313,
      "inclination_deg": 53.1599,
      "raan_deg": 258.3339,
      "arg_perigee_deg": 81.1628,
      "mean_anomaly_deg": 278.9521,
      "mean_motion_rev_day": 15.30200268
    },
    {
      "epoch": "2026-04-15T16:35:55.982688Z",
      "apogee_km": 476.02750345305685,
      "perigee_km": 474.4457448206058,
      "latitude_deg": -7.087730595541623e-05,
      "longitude_deg": 160.95123830736154,
      "height_km": 475.996192520617,
      "semi_major_axis_km": 6853.373624136831,
      "eccentricity": 0.0001154,
      "inclination_deg": 53.161,
      "raan_deg": 253.7846,
      "arg_perigee_deg": 79.8917,
      "mean_anomaly_deg": 280.2213,
      "mean_motion_rev_day": 15.30192781
    },
    {
      "epoch": "2026-04-16T09:50:31.323264Z",
      "apogee_km": 476.0313243446053,
      "perigee_km": 474.43723018551464,
      "latitude_deg": 5.962736464392537e-05,
      "longitude_deg": -101.74156648601655,
      "height_km": 475.9730190572558,
      "semi_major_axis_km": 6853.37127726506,
      "eccentricity": 0.0001163,
      "inclination_deg": 53.161,
      "raan_deg": 250.4471,
      "arg_perigee_deg": 78.4483,
      "mean_anomaly_deg": 281.6649,
      "mean_motion_rev_day": 15.30193567
    },
    {
      "epoch": "2026-04-17T20:19:41.309760Z",
      "apogee_km": 476.0251631291685,
      "perigee_km": 474.4524504490273,
      "latitude_deg": -6.256055045940695e-06,
      "longitude_deg": 92.87688202195979,
      "height_km": 475.96782048441884,
      "semi_major_axis_km": 6853.375806789098,
      "eccentricity": 0.00011474,
      "inclination_deg": 53.1605,
      "raan_deg": 243.7735,
      "arg_perigee_deg": 77.5656,
      "mean_anomaly_deg": 282.5473,
      "mean_motion_rev_day": 15.3019205
    },
    {
      "epoch": "2026-04-18T15:08:19.332384Z",
      "apogee_km": 475.9861505251347,
      "perigee_km": 474.45922198703647,
      "latitude_deg": 3.080129173790805e-05,
      "longitude_deg": 166.3049598779122,
      "height_km": 475.93814455404925,
      "semi_major_axis_km": 6853.359686256085,
      "eccentricity": 0.0001114,
      "inclination_deg": 53.1608,
      "raan_deg": 240.1325,
      "arg_perigee_deg": 76.1347,
      "mean_anomaly_deg": 283.9778,
      "mean_motion_rev_day": 15.30197449
    },
    {
      "epoch": "2026-04-19T14:39:08.103744Z",
      "apogee_km": 476.0839877561002,
      "perigee_km": 474.4473951933769,
      "latitude_deg": 4.059942091633432e-05,
      "longitude_deg": 168.0831853203501,
      "height_km": 476.1876651186304,
      "semi_major_axis_km": 6853.402691474738,
      "eccentricity": 0.0001194,
      "inclination_deg": 53.1609,
      "raan_deg": 235.5796,
      "arg_perigee_deg": 91.6604,
      "mean_anomaly_deg": 268.4534,
      "mean_motion_rev_day": 15.30183046
    },
    {
      "epoch": "2026-04-20T14:09:55.564416Z",
      "apogee_km": 476.3021461224789,
      "perigee_km": 474.1342927994583,
      "latitude_deg": 2.138971914139878e-05,
      "longitude_deg": 169.8673642787323,
      "height_km": 476.42142917465713,
      "semi_major_axis_km": 6853.355219460968,
      "eccentricity": 0.00015816,
      "inclination_deg": 53.1623,
      "raan_deg": 231.0272,
      "arg_perigee_deg": 106.3561,
      "mean_anomaly_deg": 253.7614,
      "mean_motion_rev_day": 15.30198945
    },
    {
      "epoch": "2026-04-21T15:14:46.666176Z",
      "apogee_km": 476.19096039946,
      "perigee_km": 474.3186137632283,
      "latitude_deg": 4.340410852998935e-05,
      "longitude_deg": 147.77271972484007,
      "height_km": 476.29632037756295,
      "semi_major_axis_km": 6853.391787081344,
      "eccentricity": 0.0001366,
      "inclination_deg": 53.1618,
      "raan_deg": 226.1755,
      "arg_perigee_deg": 98.8104,
      "mean_anomaly_deg": 261.3052,
      "mean_motion_rev_day": 15.30186698
    },
    {
      "epoch": "2026-04-22T11:37:29.053920Z",
      "apogee_km": 475.8543114631875,
      "perigee_km": 474.70129295686456,
      "latitude_deg": 7.230755938556803e-05,
      "longitude_deg": -162.6823893068527,
      "height_km": 476.094139313674,
      "semi_major_axis_km": 6853.414802210026,
      "eccentricity": 8.412e-05,
      "inclination_deg": 53.1605,
      "raan_deg": 222.2339,
      "arg_perigee_deg": 81.7865,
      "mean_anomaly_deg": 278.3232,
      "mean_motion_rev_day": 15.3017899
    },
    {
      "epoch": "2026-04-24T16:55:17.679072Z",
      "apogee_km": 476.1972824758932,
      "perigee_km": 474.3413800413882,
      "latitude_deg": 4.977499237139477e-05,
      "longitude_deg": 105.36096198824528,
      "height_km": 475.92450257642724,
      "semi_major_axis_km": 6853.40633125864,
      "eccentricity": 0.0001354,
      "inclination_deg": 53.158,
      "raan_deg": 211.9187,
      "arg_perigee_deg": 74.8429,
      "mean_anomaly_deg": 285.2722,
      "mean_motion_rev_day": 15.30181827
    },
    {
      "epoch": "2026-04-25T13:17:58.365600Z",
      "apogee_km": 476.02965774375207,
      "perigee_km": 474.50134898550186,
      "latitude_deg": 4.0108339066713504e-05,
      "longitude_deg": 154.90623385863762,
      "height_km": 475.77414858496917,
      "semi_major_axis_km": 6853.402503364627,
      "eccentricity": 0.0001115,
      "inclination_deg": 53.1592,
      "raan_deg": 207.9704,
      "arg_perigee_deg": 59.3327,
      "mean_anomaly_deg": 300.7784,
      "mean_motion_rev_day": 15.30183109
    },
    {
      "epoch": "2026-04-26T17:30:56.206944Z",
      "apogee_km": 476.05439137644953,
      "perigee_km": 474.4178058804964,
      "latitude_deg": 1.9038705348694372e-05,
      "longitude_deg": 85.04682024263978,
      "height_km": 475.7657394788487,
      "semi_major_axis_km": 6853.373098628473,
      "eccentricity": 0.0001194,
      "inclination_deg": 53.1591,
      "raan_deg": 202.5108,
      "arg_perigee_deg": 63.2262,
      "mean_anomaly_deg": 296.8861,
      "mean_motion_rev_day": 15.30192957
    },
    {
      "epoch": "2026-04-27T12:19:34.857696Z",
      "apogee_km": 476.0282379585542,
      "perigee_km": 474.4656664174554,
      "latitude_deg": -2.4505837360742746e-05,
      "longitude_deg": 158.47251408153778,
      "height_km": 475.8320524141439,
      "semi_major_axis_km": 6853.3839521880045,
      "eccentricity": 0.000114,
      "inclination_deg": 53.1596,
      "raan_deg": 198.8701,
      "arg_perigee_deg": 66.3635,
      "mean_anomaly_deg": 293.7485,
      "mean_motion_rev_day": 15.30189322
    },
    {
      "epoch": "2026-04-28T16:32:32.445024Z",
      "apogee_km": 476.22605151952484,
      "perigee_km": 474.27968879639957,
      "latitude_deg": -3.145808935528099e-05,
      "longitude_deg": 88.61187279168047,
      "height_km": 475.8893052750144,
      "semi_major_axis_km": 6853.389870157962,
      "eccentricity": 0.000142,
      "inclination_deg": 53.1612,
      "raan_deg": 193.4082,
      "arg_perigee_deg": 74.4042,
      "mean_anomaly_deg": 285.7115,
      "mean_motion_rev_day": 15.3018734
    },
    {
      "epoch": "2026-04-29T11:21:10.426176Z",
      "apogee_km": 476.08273625302445,
      "perigee_km": 474.4047545113244,
      "latitude_deg": -2.666848942804877e-05,
      "longitude_deg": 162.038800048764,
      "height_km": 475.78199197698126,
      "semi_major_axis_km": 6853.380745382174,
      "eccentricity": 0.00012242,
      "inclination_deg": 53.1602,
      "raan_deg": 189.7659,
      "arg_perigee_deg": 64.5843,
      "mean_anomaly_deg": 295.5284,
      "mean_motion_rev_day": 15.30190396
    },
    {
      "epoch": "2026-04-30T14:00:04.690368Z",
      "apogee_km": 476.0317480183785,
      "perigee_km": 474.4510848204163,
      "latitude_deg": -7.533607792507793e-07,
      "longitude_deg": 116.0640072418079,
      "height_km": 475.9513001074675,
      "semi_major_axis_km": 6853.378416419398,
      "eccentricity": 0.00011532,
      "inclination_deg": 53.1605,
      "raan_deg": 184.6116,
      "arg_perigee_deg": 76.2053,
      "mean_anomaly_deg": 283.9076,
      "mean_motion_rev_day": 15.30191176
    },
    {
      "epoch": "2026-05-02T09:53:34.429056Z",
      "apogee_km": 476.12094081850046,
      "perigee_km": 474.38155088170333,
      "latitude_deg": 6.097283308940484e-06,
      "longitude_deg": 167.39393496985352,
      "height_km": 476.10406590134687,
      "semi_major_axis_km": 6853.388245850102,
      "eccentricity": 0.0001269,
      "inclination_deg": 53.1601,
      "raan_deg": 176.118,
      "arg_perigee_deg": 87.0166,
      "mean_anomaly_deg": 273.098,
      "mean_motion_rev_day": 15.30187884
    }
  ]
}